STARLINK-32504          
1 62024U 24213S   26068.54142555  .00025277  00000+0  86230-3 0  9993
2 62024  53.1596 168.7092 0003351 170.7831 189.3232 15.30210574 73137
TEVEL2-4                
1 63213U 25052D   26068.69417973  .00020990  00000+0  70363-3 0  9998
2 63213  97.4009 325.1237 0004733  95.3468 264.8313 15.30925813 54879
